CTC2_L_00423016-03
1 49239U 22019VK  26070.40847222  .00000000  00000+0  00000-0 0  9994
2 49239  55.0000 180.0000 0000000   0.0000   0.0000 12.53473438    19
CTC2_L_00423016-04
1 49240U 23557OY  26070.40847222  .00000000  00000+0  00000-0 0  9994
2 49240  55.0000 180.0000 0000000   0.0000  90.0000 12.53473438    10
CTC2_L_00423017-01
1 49241U 22085YQ  26070.40847222  .00000000  00000+0  00000-0 0  9990
2 49241  55.0000 192.0000 0000000   0.0000 192.0000 12.53473438    17
CTC2_L_00423017-02
1 49242U 23902KC  26070.40847222  .00000000  00000+0  00000-0 0  9990
2 49242  55.0000 192.0000 0000000   0.0000 282.0000 12.53473438    18
CTC2_L_00423017-03
1 49243U 25071CF  26070.40847222  .00000000  00000+0  00000-0 0  9990
2 49243  55.0000 192.0000 0000000   0.0000  12.0000 12.53473438    10
CTC2_L_00423017-04
1 49244U 24738ZW  26070.40847222  .00000000  00000+0  00000-0 0  9990
2 49244  55.0000 192.0000 0000000   0.0000 102.0000 12.53473438    11
CTC2_L_00423018-01
1 49245U 22564YF  26070.40847222  .00000000  00000+0  00000-0 0  9996
2 49245  55.0000 204.0000 0000000   0.0000 204.0000 12.53473438    19
CTC2_L_00423018-02
1 49246U 25491UC  26070.40847222  .00000000  00000+0  00000-0 0  9999
2 49246  55.0000 204.0000 0000000   0.0000 294.0000 12.53473438    19
CTC2_L_00423018-03
1 49247U 24870ZA  26070.40847222  .00000000  00000+0  00000-0 0  9990
2 49247  55.0000 204.0000 0000000   0.0000  24.0000 12.53473438    11
CTC2_L_00423018-04
1 49248U 24285CA  26070.40847222  .00000000  00000+0  00000-0 0  9991
2 49248  55.0000 204.0000 0000000   0.0000 114.0000 12.53473438    12
CTC2_L_00423019-01
1 49249U 25316OA  26070.40847222  .00000000  00000+0  00000-0 0  9998
2 49249  55.0000 216.0000 0000000   0.0000 216.0000 12.53473438    19
CTC2_L_00423019-02
1 49250U 25978UB  26070.40847222  .00000000  00000+0  00000-0 0  9994
2 49250  55.0000 216.0000 0000000   0.0000 306.0000 12.53473438    11
CTC2_L_00423019-03
1 49251U 25617BO  26070.40847222  .00000000  00000+0  00000-0 0  9995
2 49251  55.0000 216.0000 0000000   0.0000  36.0000 12.53473438    12
CTC2_L_00423019-04
1 49252U 23387HJ  26070.40847222  .00000000  00000+0  00000-0 0  9998
2 49252  55.0000 216.0000 0000000   0.0000 126.0000 12.53473438    13
CTC2_L_00423020-01
1 49253U 25654QX  26070.40847222  .00000000  00000+0  00000-0 0  9998
2 49253  55.0000 228.0000 0000000   0.0000 228.0000 12.53473438    10
CTC2_L_00423020-02
1 49254U 25398DZ  26070.40847222  .00000000  00000+0  00000-0 0  9994
2 49254  55.0000 228.0000 0000000   0.0000 318.0000 12.53473438    11
CTC2_L_00423020-03
1 49255U 23137LD  26070.40847222  .00000000  00000+0  00000-0 0  9994
2 49255  55.0000 228.0000 0000000   0.0000  48.0000 12.53473438    12
CTC2_L_00423020-04
1 49256U 22998QG  26070.40847222  .00000000  00000+0  00000-0 0  9999
2 49256  55.0000 228.0000 0000000   0.0000 138.0000 12.53473438    13
CTC2_L_00423021-01
1 49257U 25597DC  26070.40847222  .00000000  00000+0  00000-0 0  9998
2 49257  55.0000 240.0000 0000000   0.0000 240.0000 12.53473438    12
CTC2_L_00423021-02
1 49258U 25128FG  26070.40847222  .00000000  00000+0  00000-0 0  9999
2 49258  55.0000 240.0000 0000000   0.0000 330.0000 12.53473438    13
CTC2_L_00423021-03
1 49259U 24999HL  26070.40847222  .00000000  00000+0  00000-0 0  9995
2 49259  55.0000 240.0000 0000000   0.0000  60.0000 12.53473438    14
CTC2_L_00423021-04
1 49260U 23735IH  26070.40847222  .00000000  00000+0  00000-0 0  9994
2 49260  55.0000 240.0000 0000000   0.0000 150.0000 12.53473438    16
CTC2_L_00423022-01
1 49261U 26333BY  26070.40847222  .00000000  00000+0  00000-0 0  9992
2 49261  55.0000 252.0000 0000000   0.0000 252.0000 12.53473438    13
CTC2_L_00423022-02
1 49262U 24483NI  26070.40847222  .00000000  00000+0  00000-0 0  9997
2 49262  55.0000 252.0000 0000000   0.0000 342.0000 12.53473438    14
CTC2_L_00423022-03
1 49263U 26645TG  26070.40847222  .00000000  00000+0  00000-0 0  9990
2 49263  55.0000 252.0000 0000000   0.0000  72.0000 12.53473438    15
CTC2_L_00423022-04
1 49264U 23940JL  26070.40847222  .00000000  00000+0  00000-0 0  9996
2 49264  55.0000 252.0000 0000000   0.0000 162.0000 12.53473438    16
CTC2_L_00423023-01
1 49265U 23590QY  26070.40847222  .00000000  00000+0  00000-0 0  9998
2 49265  55.0000 264.0000 0000000   0.0000 264.0000 12.53473438    13
CTC2_L_00423023-02
1 49266U 23223RU  26070.40847222  .00000000  00000+0  00000-0 0  9992
2 49266  55.0000 264.0000 0000000   0.0000 354.0000 12.53473438    14
CTC2_L_00423023-03
1 49267U 25174XG  26070.40847222  .00000000  00000+0  00000-0 0  9990
2 49267  55.0000 264.0000 0000000   0.0000  84.0000 12.53473438    15
CTC2_L_00423023-04
1 49268U 24388ZB  26070.40847222  .00000000  00000+0  00000-0 0  9997
2 49268  55.0000 264.0000 0000000   0.0000 174.0000 12.53473438    16
CTC2_L_00423024-01
1 49269U 22813T   26070.40847222  .00000000  00000+0  00000-0 0  9999
2 49269  55.0000 276.0000 0000000   0.0000 276.0000 12.53473438    13
CTC2_L_00423024-02
1 49270U 25752KX  26070.40847222  .00000000  00000+0  00000-0 0  9996
2 49270  55.0000 276.0000 0000000   0.0000   6.0000 12.53473438    16
CTC2_L_00423024-03
1 49271U 26560UR  26070.40847222  .00000000  00000+0  00000-0 0  9995
2 49271  55.0000 276.0000 0000000   0.0000  96.0000 12.53473438    16
CTC2_L_00423024-04
1 49272U 24152FN  26070.40847222  .00000000  00000+0  00000-0 0  9991
2 49272  55.0000 276.0000 0000000   0.0000 186.0000 12.53473438    17
CTC2_L_00423025-01
1 49273U 22620QG  26070.40847222  .00000000  00000+0  00000-0 0  9990
2 49273  55.0000 288.0000 0000000   0.0000 288.0000 12.53473438    14
CTC2_L_00423025-02
1 49274U 22867EZ  26070.40847222  .00000000  00000+0  00000-0 0  9994
2 49274  55.0000 288.0000 0000000   0.0000  18.0000 12.53473438    16
CTC2_L_00423025-03
1 49275U 26432CM  26070.40847222  .00000000  00000+0  00000-0 0  9997
2 49275  55.0000 288.0000 0000000   0.0000 108.0000 12.53473438    17
CTC2_L_00423025-04
1 49276U 26613PU  26070.40847222  .00000000  00000+0  00000-0 0  9999
2 49276  55.0000 288.0000 0000000   0.0000 198.0000 12.53473438    17
CTC2_L_00423026-01
1 49277U 26923QD  26070.40847222  .00000000  00000+0  00000-0 0  9994
2 49277  55.0000 300.0000 0000000   0.0000 300.0000 12.53473438    18
CTC2_L_00423026-02
1 49278U 23610OY  26070.40847222  .00000000  00000+0  00000-0 0  9995
2 49278  55.0000 300.0000 0000000   0.0000  30.0000 12.53473438    19
CTC2_L_00423026-03
1 49279U 25904JL  26070.40847222  .00000000  00000+0  00000-0 0  9994
2 49279  55.0000 300.0000 0000000   0.0000 120.0000 12.53473438    10
CTC2_L_00423026-04
1 49280U 26047HZ  26070.40847222  .00000000  00000+0  00000-0 0  9995
2 49280  55.0000 300.0000 0000000   0.0000 210.0000 12.53473438    12
CTC2_L_00423027-01
1 49281U 26195SO  26070.40847222  .00000000  00000+0  00000-0 0  9990
2 49281  55.0000 312.0000 0000000   0.0000 312.0000 12.53473438    19
CTC2_L_00423027-02
1 49282U 26023CH  26070.40847222  .00000000  00000+0  00000-0 0  9991
2 49282  55.0000 312.0000 0000000   0.0000  42.0000 12.53473438    10
CTC2_L_00423027-03
1 49283U 24866UJ  26070.40847222  .00000000  00000+0  00000-0 0  9995
2 49283  55.0000 312.0000 0000000   0.0000 132.0000 12.53473438    11
CTC2_L_00423027-04
1 49284U 26497IV  26070.40847222  .00000000  00000+0  00000-0 0  9998
2 49284  55.0000 312.0000 0000000   0.0000 222.0000 12.53473438    12
CTC2_L_00423028-01
1 49285U 23543NX  26070.40847222  .00000000  00000+0  00000-0 0  9998
2 49285  55.0000 324.0000 0000000   0.0000 324.0000 12.53473438    19
CTC2_L_00423028-02
1 49286U 25081CY  26070.40847222  .00000000  00000+0  00000-0 0  9998
2 49286  55.0000 324.0000 0000000   0.0000  54.0000 12.53473438    10
CTC2_L_00423028-03
1 49287U 22335BM  26070.40847222  .00000000  00000+0  00000-0 0  9998
2 49287  55.0000 324.0000 0000000   0.0000 144.0000 12.53473438    11
CTC2_L_00423028-04
1 49288U 23244XF  26070.40847222  .00000000  00000+0  00000-0 0  9999
2 49288  55.0000 324.0000 0000000   0.0000 234.0000 12.53473438    12
CTC2_L_00423029-01
1 49289U 26407ZX  26070.40847222  .00000000  00000+0  00000-0 0  9994
2 49289  55.0000 336.0000 0000000   0.0000 336.0000 12.53473438    19
CTC2_L_00423029-02
1 49290U 22752FW  26070.40847222  .00000000  00000+0  00000-0 0  9995
2 49290  55.0000 336.0000 0000000   0.0000  66.0000 12.53473438    11
CTC2_L_00423029-03
1 49291U 24330HH  26070.40847222  .00000000  00000+0  00000-0 0  9990
2 49291  55.0000 336.0000 0000000   0.0000 156.0000 12.53473438    12
CTC2_L_00423029-04
1 49292U 24312MC  26070.40847222  .00000000  00000+0  00000-0 0  9991
2 49292  55.0000 336.0000 0000000   0.0000 246.0000 12.53473438    13
CTC2_L_00423030-01
1 49293U 22601KI  26070.40847222  .00000000  00000+0  00000-0 0  9991
2 49293  55.0000 348.0000 0000000   0.0000 348.0000 12.53473438    10
CTC2_L_00423030-02
1 49294U 25255EM  26070.40847222  .00000000  00000+0  00000-0 0  9990
2 49294  55.0000 348.0000 0000000   0.0000  78.0000 12.53473438    11
CTC2_L_00423030-03
1 49295U 24324VH  26070.40847222  .00000000  00000+0  00000-0 0  9997
2 49295  55.0000 348.0000 0000000   0.0000 168.0000 12.53473438    12
CTC2_L_00423030-04
1 49296U 25137PC  26070.40847222  .00000000  00000+0  00000-0 0  9991
2 49296  55.0000 348.0000 0000000   0.0000 258.0000 12.53473438    13
